TOMORROW-R2             
1 56962U 23084AG  26068.88846178  .00107013  00000+0  81619-3 0  9996
2 56962  97.5895 222.1734 0005114 248.1295 111.9424 15.71879583153326
STARLINK-11584 [DTC]    
1 63106U 25039C   26068.64046390  .00111837  00000+0  86234-3 0  9995
2 63106  42.9991 237.5061 0001759 275.5772  84.4895 15.70868494 59603
